{
  "norad_id": 47993,
  "name": "STARLINK-2273",
  "history": [
    {
      "epoch": "2026-03-28T15:55:16.885632",
      "apogee_km": 448.61176653239727,
      "perigee_km": 447.43616509086405,
      "latitude_deg": -27.872519244851745,
      "longitude_deg": 122.9854284801986,
      "semi_major_axis_km": 6826.16096581163,
      "eccentricity": 8.611e-05,
      "inclination_deg": 53.1549,
      "raan_deg": 207.7432,
      "arg_perigee_deg": 47.2796,
      "mean_anomaly_deg": 312.8281,
      "mean_motion_rev_day": 15.39352121
    }
  ]
}